{
    "links": {
        "self": "http://www.neowsapp.com/rest/v1/neo/3745833?api_key=iIulBulltgU6a56xZRHN4H3l9WmuAYTsLGpBGhQ2"
    },
    "id": "3745833",
    "neo_reference_id": "3745833",
    "name": "(2016 EP55)",
    "designation": "2016 EP55",
    "nasa_jpl_url": "http://ssd.jpl.nasa.gov/sbdb.cgi?sstr=3745833",
    "absolute_magnitude_h": 24.7,
    "estimated_diameter": {
        "kilometers": {
            "estimated_diameter_min": 0.0305179233,
            "estimated_diameter_max": 0.0682401509
        },
        "meters": {
            "estimated_diameter_min": 30.5179232594,
            "estimated_diameter_max": 68.2401509401
        },
        "miles": {
            "estimated_diameter_min": 0.0189629525,
            "estimated_diameter_max": 0.0424024508
        },
        "feet": {
            "estimated_diameter_min": 100.1244233463,
            "estimated_diameter_max": 223.8850168104
        }
    },
    "is_potentially_hazardous_asteroid": false,
    "close_approach_data": [
        {
            "close_approach_date": "2016-03-03",
            "close_approach_date_full": "2016-Mar-03 03:03",
            "epoch_date_close_approach": 1456974180000,
            "relative_velocity": {
                "kilometers_per_second": "10.5943914493",
                "kilometers_per_hour": "38139.8092174494",
                "miles_per_hour": "23698.5942329202"
            },
            "miss_distance": {
                "astronomical": "0.0692451817",
                "lunar": "26.9363756813",
                "kilometers": "10358931.690082979",
                "miles": "6436741.6765399502"
            },
            "orbiting_body": "Earth"
        }
    ],
    "orbital_data": {
        "orbit_id": "12",
        "orbit_determination_date": "2019-12-04 07:14:54",
        "first_observation_date": "2016-03-07",
        "last_observation_date": "2016-04-01",
        "data_arc_in_days": 25,
        "observations_used": 47,
        "orbit_uncertainty": "7",
        "minimum_orbit_intersection": ".0686222",
        "jupiter_tisserand_invariant": "4.372",
        "epoch_osculation": "2459000.5",
        "eccentricity": ".358803850816992",
        "semi_major_axis": "1.532380971312299",
        "inclination": "15.52999089483715",
        "ascending_node_longitude": "349.9413858952713",
        "orbital_period": "692.864886588438",
        "perihelion_distance": ".9825567778867637",
        "perihelion_argument": "131.6007433364058",
        "aphelion_distance": "2.082205164737835",
        "perihelion_time": "2458800.450292624085",
        "mean_anomaly": "103.9421913988666",
        "mean_motion": ".5195818217496713",
        "equinox": "J2000",
        "orbit_class": {
            "orbit_class_type": "APO",
            "orbit_class_description": "Near-Earth asteroid orbits which cross the Earth’s orbit similar to that of 1862 Apollo",
            "orbit_class_range": "a (semi-major axis) > 1.0 AU; q (perihelion) < 1.017 AU"
        }
    },
    "is_sentry_object": false
}